[{"OBJECT_NAME":"STARLINK-3077","OBJECT_ID":"2021-082D","EPOCH":"2026-03-09T22:08:31.582464","MEAN_MOTION":14.98325421,"ECCENTRICITY":0.00029723,"INCLINATION":69.9984,"RA_OF_ASC_NODE":293.8681,"ARG_OF_PERICENTER":272.5846,"MEAN_ANOMALY":87.4973,"EPHEMERIS_TYPE":0,"CLASSIFICATION_TYPE":"U","NORAD_CAT_ID":49133,"ELEMENT_SET_NO":999,"REV_AT_EPOCH":24601,"BSTAR":8.9812135e-5,"MEAN_MOTION_DOT":9.79e-6,"MEAN_MOTION_DDOT":0},{"OBJECT_NAME":"SL-16 DEB","OBJECT_ID":"1992-093JY","EPOCH":"2026-03-07T13:13:58.279008","MEAN_MOTION":15.07529046,"ECCENTRICITY":0.0041412,"INCLINATION":71.2754,"RA_OF_ASC_NODE":129.6393,"ARG_OF_PERICENTER":153.6297,"MEAN_ANOMALY":274.6618,"EPHEMERIS_TYPE":0,"CLASSIFICATION_TYPE":"U","NORAD_CAT_ID":39708,"ELEMENT_SET_NO":999,"REV_AT_EPOCH":64104,"BSTAR":0.0012088,"MEAN_MOTION_DOT":0.00018716,"MEAN_MOTION_DDOT":0}]
